{
  "norad_id": 53598,
  "name": "STARLINK-4676",
  "history": [
    {
      "epoch": "2026-03-28T11:15:50.213088Z",
      "apogee_km": 540.7061801557138,
      "perigee_km": 538.7499462731375,
      "latitude_deg": -9.17438642661616e-06,
      "longitude_deg": 164.70674230950704,
      "height_km": 540.6323572506212,
      "semi_major_axis_km": 6917.865063214425,
      "eccentricity": 0.00014139,
      "inclination_deg": 53.2146,
      "raan_deg": 159.5553,
      "arg_perigee_deg": 90.5247,
      "mean_anomaly_deg": 269.5907,
      "mean_motion_rev_day": 15.08845014
    }
  ]
}